QIANFAN-57              
1 62787U 25016C   25212.61963200  .00000126  00000+0  17657-3 0  9990
2 62787  88.9856 117.0253 0002187  92.3153 267.8249 13.50955961 29098
QIANFAN-58              
1 62788U 25016D   25212.59087230  .00000141  00000+0  19903-3 0  9991
2 62788  88.9824 116.9017 0015136  18.6332 341.5370 13.50955225 29131
QIANFAN-59              
1 62789U 25016E   25212.52920966  .00000119  00000+0  16608-3 0  9991
2 62789  88.9848 116.9467 0016134  21.3652 338.8170 13.50959473 29127
QIANFAN-60              
1 62790U 25016F   25212.59483934  .00000112  00000+0  15511-3 0  9994
2 62790  88.9829 116.9449 0016530  18.8978 341.2783 13.50967858 29113
QIANFAN-61              
1 62791U 25016G   25212.53333333  .00000122  00000+0  17068-3 0  9996
2 62791  88.9897 117.0177 0015930  18.1215 342.0501 13.50957334 29125
QIANFAN-62              
1 62792U 25016H   25212.53726978  .00000133  00000+0  18691-3 0  9993
2 62792  88.9844 116.9584 0017337  17.8469 342.3287 13.50956278 29117
QIANFAN-63              
1 62793U 25016J   25212.54962259  .00000131  00000+0  18445-3 0  9994
2 62793  88.9850 116.8967 0017277  22.0816 338.1076 13.50953427 29152
QIANFAN-64              
1 62794U 25016K   25212.39322668  .00000103  00000+0  14158-3 0  9998
2 62794  88.9837 116.9109 0014960  17.4855 342.6808 13.50956551 29125
